GOES 1 [-]              
1 08366U 75100A   08236.39262700 -.00000008  00000-0  10000-3 0  7647
2 08366  14.4331 350.1929 0004288 226.2668 133.7435  1.00302541119962
GOES 2 [-]              
1 10061U 77048A   08236.75039488 -.00000269  00000-0  10000-3 0  5085
2 10061  14.5972 358.5989 0017267 238.8818 120.9930  0.99397575 58849
GOES 3 [P]              
1 10953U 78062A   08233.37923102 -.00000123  00000-0  10000-3 0  2145
2 10953  14.2525   2.4737 0000660  31.9979 328.0550  1.00278784 63652
GOES 4 [-]              
1 11964U 80074A   08236.51376029  .00000010  00000-0  10000-3 0   213
2 11964  14.5522   6.1493 0034382 283.3892  76.2623  0.99230566 63072
GOES 5 [-]              
1 12472U 81049A   08236.37125455 -.00000216  00000-0  10000-3 0   624
2 12472  13.3843  16.7056 0003690 167.3878 192.6701  1.00333579 57721
GOES 6 [-]              
1 14050U 83041A   08236.46475540 -.00000042  00000-0  10000-3 0   622
2 14050  12.9743  21.8488 0001536 140.8721 219.1934  1.00322362150821
GOES 7 [-]              
1 17561U 87022A   08237.31108097  .00000056  00000-0  10000-3 0  5719
2 17561  11.5504  40.0789 0004722 186.5829  42.4122  1.00296664 61938
GOES 8 [-]              
1 23051U 94022A   08237.31489264 -.00000211  00000-0  10000-3 0  4539
2 23051   4.9917  77.9152 0007007 148.4404 211.7680  0.98908002 59783
GOES 9 [P]              
1 23581U 95025A   08237.27382345 -.00000174  00000-0  10000-3 0  7203
2 23581   4.5573  74.2907 0002018 336.7991  23.3836  0.98802944 48497
GOES 10 [+]             
1 24786U 97019A   08233.94380534 -.00000281  00000-0  10000-3 0  5267
2 24786   2.8745  78.4802 0004193 112.2335  58.2722  1.00258137 41499
GOES 11 [+]             
1 26352U 00022A   08237.11607315  .00000084  00000-0  10000-3 0  9453
2 26352   0.3156 262.6926 0005156 305.1570  31.6092  1.00262857 30427
GOES 12 [+]             
1 26871U 01031A   08235.50000000 -.00000246  00000-0  10000-3 0  6918
2 26871   0.1720  95.3500 0000654 247.3160  92.9200  1.00265035 26019
GOES 13 [S]             
1 29155U 06018A   08237.48388616 -.00000095  00000-0  10000-3 0  4748
2 29155   0.3341  85.7794 0001116 110.7575 205.4204  1.00278054  8282
